SL-16 R/B               
1 22566U 93016B   26046.94063871 -.00000230  00000+0 -93638-4 0  9995
2 22566  71.0049 260.8632 0010566 343.8148  16.2636 14.15301240699098
COSMOS 2242             
1 22626U 93024A   26046.70444999  .00001887  00000+0  16362-3 0  9994
2 22626  82.5184 287.7467 0017079  24.3152 335.8872 14.96458217777105
SL-16 R/B               
1 22803U 93059B   26046.45553292 -.00000143  00000+0 -47075-4 0  9990
2 22803  70.9890  58.0143 0019400 247.2090 112.6984 14.17227966676385
ARIANE 40 R/B           
1 22830U 93061H   26046.77171392  .00000209  00000+0  92400-4 0  9998
2 22830  98.4964 116.0867 0010361 355.5169   4.5921 14.32849066690965
COSMOS 2278             
1 23087U 94023A   26046.88545346  .00000123  00000+0  88936-4 0  9992
2 23087  71.0504 220.7142 0006960  55.8584 304.3197 14.14364142641720
SL-16 R/B               
1 23088U 94023B   26046.58835588  .00000330  00000+0  19503-3 0  9993
2 23088  70.9994 117.3056 0004696 306.7568  53.3123 14.15006625642968
SL-16 R/B               
1 23343U 94074B   26046.61841432  .00000534  00000+0  78281-4 0  9997
2 23343  97.7139  78.3269 0005263 299.9673 173.4026 14.79381301683983
SL-16 R/B               
1 23405U 94077B   26046.93190966  .00000303  00000+0  17937-3 0  9997
2 23405  70.9827  38.2617 0003986 231.5485 128.5280 14.15561664613151
ARIANE 40+ R/B          
1 23561U 95021B   26046.79588727  .00000318  00000+0  11534-3 0  9993
2 23561  98.4545 118.5702 0006502 197.7897 271.5781 14.39756053616095
SL-16 R/B               
1 23705U 95058B   26046.93781432  .00000014  00000+0  31633-4 0  9993
2 23705  71.0196 225.9211 0011719 163.0287 197.1231 14.15495880564779
SL-16 R/B               
1 24298U 96051B   26046.92808350  .00000110  00000+0  86294-4 0  9993
2 24298  70.7569 221.2989 0016980 178.9392 181.1767 14.12409561518577
ORBVIEW 2 (SEASTAR)     
1 24883U 97037A   26046.94951695  .00000348  00000+0  13736-3 0  9994
2 24883  98.8528 210.6900 0003157 115.9274 244.2236 14.35478017505351
