CCSDS_OMM_VERS = 2.0
CREATION_DATE  = 
ORIGINATOR     = 

OBJECT_NAME    = SL-16 R/B
OBJECT_ID      = 1993-016B
CENTER_NAME    = EARTH
REF_FRAME      = TEME
TIME_SYSTEM    = UTC
MEAN_ELEMENT_THEORY = SGP/SGP4

EPOCH          = 2026-02-15T22:34:31.184544
MEAN_MOTION    = 14.15301240
ECCENTRICITY   = .00105663
INCLINATION    = 71.0049
RA_OF_ASC_NODE = 260.8632
ARG_OF_PERICENTER = 343.8148
MEAN_ANOMALY   = 16.2636

EPHEMERIS_TYPE = 0
CLASSIFICATION_TYPE = U
NORAD_CAT_ID   = 22566
ELEMENT_SET_NO = 999
REV_AT_EPOCH   = 69909
BSTAR          = -.93637664E-4
MEAN_MOTION_DOT = -.23E-5
MEAN_MOTION_DDOT = 0

CCSDS_OMM_VERS = 2.0
CREATION_DATE  = 
ORIGINATOR     = 

OBJECT_NAME    = COSMOS 2242
OBJECT_ID      = 1993-024A
CENTER_NAME    = EARTH
REF_FRAME      = TEME
TIME_SYSTEM    = UTC
MEAN_ELEMENT_THEORY = SGP/SGP4

EPOCH          = 2026-02-15T16:54:24.479136
MEAN_MOTION    = 14.96458217
ECCENTRICITY   = .00170799
INCLINATION    = 82.5184
RA_OF_ASC_NODE = 287.7467
ARG_OF_PERICENTER = 24.3152
MEAN_ANOMALY   = 335.8872

EPHEMERIS_TYPE = 0
CLASSIFICATION_TYPE = U
NORAD_CAT_ID   = 22626
ELEMENT_SET_NO = 999
REV_AT_EPOCH   = 77710
BSTAR          = .16361741E-3
MEAN_MOTION_DOT = .1887E-4
MEAN_MOTION_DDOT = 0

CCSDS_OMM_VERS = 2.0
CREATION_DATE  = 
ORIGINATOR     = 

OBJECT_NAME    = SL-16 R/B
OBJECT_ID      = 1993-059B
CENTER_NAME    = EARTH
REF_FRAME      = TEME
TIME_SYSTEM    = UTC
MEAN_ELEMENT_THEORY = SGP/SGP4

EPOCH          = 2026-02-15T10:55:58.044288
MEAN_MOTION    = 14.17227966
ECCENTRICITY   = .00194006
INCLINATION    = 70.9890
RA_OF_ASC_NODE = 58.0143
ARG_OF_PERICENTER = 247.2090
MEAN_ANOMALY   = 112.6984

EPHEMERIS_TYPE = 0
CLASSIFICATION_TYPE = U
NORAD_CAT_ID   = 22803
ELEMENT_SET_NO = 999
REV_AT_EPOCH   = 67638
BSTAR          = -.47075409E-4
MEAN_MOTION_DOT = -.143E-5
MEAN_MOTION_DDOT = 0

CCSDS_OMM_VERS = 2.0
CREATION_DATE  = 
ORIGINATOR     = 

OBJECT_NAME    = ARIANE 40 R/B
OBJECT_ID      = 1993-061H
CENTER_NAME    = EARTH
REF_FRAME      = TEME
TIME_SYSTEM    = UTC
MEAN_ELEMENT_THEORY = SGP/SGP4

EPOCH          = 2026-02-15T18:31:16.082688
MEAN_MOTION    = 14.32849066
ECCENTRICITY   = .00103615
INCLINATION    = 98.4964
RA_OF_ASC_NODE = 116.0867
ARG_OF_PERICENTER = 355.5169
MEAN_ANOMALY   = 4.5921

EPHEMERIS_TYPE = 0
CLASSIFICATION_TYPE = U
NORAD_CAT_ID   = 22830
ELEMENT_SET_NO = 999
REV_AT_EPOCH   = 69096
BSTAR          = .92399998E-4
MEAN_MOTION_DOT = .209E-5
MEAN_MOTION_DDOT = 0

CCSDS_OMM_VERS = 2.0
CREATION_DATE  = 
ORIGINATOR     = 

OBJECT_NAME    = COSMOS 2278
OBJECT_ID      = 1994-023A
CENTER_NAME    = EARTH
REF_FRAME      = TEME
TIME_SYSTEM    = UTC
MEAN_ELEMENT_THEORY = SGP/SGP4

EPOCH          = 2026-02-15T21:15:03.178944
MEAN_MOTION    = 14.14364142
ECCENTRICITY   = .00069606
INCLINATION    = 71.0504
RA_OF_ASC_NODE = 220.7142
ARG_OF_PERICENTER = 55.8584
MEAN_ANOMALY   = 304.3197

EPHEMERIS_TYPE = 0
CLASSIFICATION_TYPE = U
NORAD_CAT_ID   = 23087
ELEMENT_SET_NO = 999
REV_AT_EPOCH   = 64172
BSTAR          = .88935986E-4
MEAN_MOTION_DOT = .123E-5
MEAN_MOTION_DDOT = 0

CCSDS_OMM_VERS = 2.0
CREATION_DATE  = 
ORIGINATOR     = 

OBJECT_NAME    = SL-16 R/B
OBJECT_ID      = 1994-023B
CENTER_NAME    = EARTH
REF_FRAME      = TEME
TIME_SYSTEM    = UTC
MEAN_ELEMENT_THEORY = SGP/SGP4

EPOCH          = 2026-02-15T14:07:13.948032
MEAN_MOTION    = 14.15006625
ECCENTRICITY   = .0004696
INCLINATION    = 70.9994
RA_OF_ASC_NODE = 117.3056
ARG_OF_PERICENTER = 306.7568
MEAN_ANOMALY   = 53.3123

EPHEMERIS_TYPE = 0
CLASSIFICATION_TYPE = U
NORAD_CAT_ID   = 23088
ELEMENT_SET_NO = 999
REV_AT_EPOCH   = 64296
BSTAR          = .19503E-3
MEAN_MOTION_DOT = .33E-5
MEAN_MOTION_DDOT = 0

CCSDS_OMM_VERS = 2.0
CREATION_DATE  = 
ORIGINATOR     = 

OBJECT_NAME    = SL-16 R/B
OBJECT_ID      = 1994-074B
CENTER_NAME    = EARTH
REF_FRAME      = TEME
TIME_SYSTEM    = UTC
MEAN_ELEMENT_THEORY = SGP/SGP4

EPOCH          = 2026-02-15T14:50:30.997248
MEAN_MOTION    = 14.79381301
ECCENTRICITY   = .00052634
INCLINATION    = 97.7139
RA_OF_ASC_NODE = 78.3269
ARG_OF_PERICENTER = 299.9673
MEAN_ANOMALY   = 173.4026

EPHEMERIS_TYPE = 0
CLASSIFICATION_TYPE = U
NORAD_CAT_ID   = 23343
ELEMENT_SET_NO = 999
REV_AT_EPOCH   = 68398
BSTAR          = .78281426E-4
MEAN_MOTION_DOT = .534E-5
MEAN_MOTION_DDOT = 0

CCSDS_OMM_VERS = 2.0
CREATION_DATE  = 
ORIGINATOR     = 

OBJECT_NAME    = SL-16 R/B
OBJECT_ID      = 1994-077B
CENTER_NAME    = EARTH
REF_FRAME      = TEME
TIME_SYSTEM    = UTC
MEAN_ELEMENT_THEORY = SGP/SGP4

EPOCH          = 2026-02-15T22:21:56.994624
MEAN_MOTION    = 14.15561664
ECCENTRICITY   = .00039863
INCLINATION    = 70.9827
RA_OF_ASC_NODE = 38.2617
ARG_OF_PERICENTER = 231.5485
MEAN_ANOMALY   = 128.5280

EPHEMERIS_TYPE = 0
CLASSIFICATION_TYPE = U
NORAD_CAT_ID   = 23405
ELEMENT_SET_NO = 999
REV_AT_EPOCH   = 61315
BSTAR          = .17936837E-3
MEAN_MOTION_DOT = .303E-5
MEAN_MOTION_DDOT = 0

CCSDS_OMM_VERS = 2.0
CREATION_DATE  = 
ORIGINATOR     = 

OBJECT_NAME    = ARIANE 40+ R/B
OBJECT_ID      = 1995-021B
CENTER_NAME    = EARTH
REF_FRAME      = TEME
TIME_SYSTEM    = UTC
MEAN_ELEMENT_THEORY = SGP/SGP4

EPOCH          = 2026-02-15T19:06:04.660128
MEAN_MOTION    = 14.39756053
ECCENTRICITY   = .00065027
INCLINATION    = 98.4545
RA_OF_ASC_NODE = 118.5702
ARG_OF_PERICENTER = 197.7897
MEAN_ANOMALY   = 271.5781

EPHEMERIS_TYPE = 0
CLASSIFICATION_TYPE = U
NORAD_CAT_ID   = 23561
ELEMENT_SET_NO = 999
REV_AT_EPOCH   = 61609
BSTAR          = .11534371E-3
MEAN_MOTION_DOT = .318E-5
MEAN_MOTION_DDOT = 0

CCSDS_OMM_VERS = 2.0
CREATION_DATE  = 
ORIGINATOR     = 

OBJECT_NAME    = SL-16 R/B
OBJECT_ID      = 1995-058B
CENTER_NAME    = EARTH
REF_FRAME      = TEME
TIME_SYSTEM    = UTC
MEAN_ELEMENT_THEORY = SGP/SGP4

EPOCH          = 2026-02-15T22:30:27.157248
MEAN_MOTION    = 14.15495880
ECCENTRICITY   = .00117191
INCLINATION    = 71.0196
RA_OF_ASC_NODE = 225.9211
ARG_OF_PERICENTER = 163.0287
MEAN_ANOMALY   = 197.1231

EPHEMERIS_TYPE = 0
CLASSIFICATION_TYPE = U
NORAD_CAT_ID   = 23705
ELEMENT_SET_NO = 999
REV_AT_EPOCH   = 56477
BSTAR          = .31633325E-4
MEAN_MOTION_DOT = .14E-6
MEAN_MOTION_DDOT = 0

CCSDS_OMM_VERS = 2.0
CREATION_DATE  = 
ORIGINATOR     = 

OBJECT_NAME    = SL-16 R/B
OBJECT_ID      = 1996-051B
CENTER_NAME    = EARTH
REF_FRAME      = TEME
TIME_SYSTEM    = UTC
MEAN_ELEMENT_THEORY = SGP/SGP4

EPOCH          = 2026-02-15T22:16:26.414400
MEAN_MOTION    = 14.12409561
ECCENTRICITY   = .00169803
INCLINATION    = 70.7569
RA_OF_ASC_NODE = 221.2989
ARG_OF_PERICENTER = 178.9392
MEAN_ANOMALY   = 181.1767

EPHEMERIS_TYPE = 0
CLASSIFICATION_TYPE = U
NORAD_CAT_ID   = 24298
ELEMENT_SET_NO = 999
REV_AT_EPOCH   = 51857
BSTAR          = .86294393E-4
MEAN_MOTION_DOT = .11E-5
MEAN_MOTION_DDOT = 0

CCSDS_OMM_VERS = 2.0
CREATION_DATE  = 
ORIGINATOR     = 

OBJECT_NAME    = ORBVIEW 2 (SEASTAR)
OBJECT_ID      = 1997-037A
CENTER_NAME    = EARTH
REF_FRAME      = TEME
TIME_SYSTEM    = UTC
MEAN_ELEMENT_THEORY = SGP/SGP4

EPOCH          = 2026-02-15T22:47:18.264480
MEAN_MOTION    = 14.35478017
ECCENTRICITY   = .00031572
INCLINATION    = 98.8528
RA_OF_ASC_NODE = 210.6900
ARG_OF_PERICENTER = 115.9274
MEAN_ANOMALY   = 244.2236

EPHEMERIS_TYPE = 0
CLASSIFICATION_TYPE = U
NORAD_CAT_ID   = 24883
ELEMENT_SET_NO = 999
REV_AT_EPOCH   = 50535
BSTAR          = .13735975E-3
MEAN_MOTION_DOT = .348E-5
MEAN_MOTION_DDOT = 0

